#aV2016  1 13  0  0  0.00000000     288 DD+AD WGS84 FIT  NGA
## 1879 259200.00000000   300.00000000 57400 0.0000000000000
+   31     1  2  3  5  6  7  8  9 10 11 12 13 14 15 16 17 18
+         19 20 21 22 23 24 25 26 27 28 29 30 31 32  0  0  0
+          0  0  0  0  0  0  0  0  0  0  0  0  0  0  0  0  0
+          0  0  0  0  0  0  0  0  0  0  0  0  0  0  0  0  0
+          0  0  0  0  0  0  0  0  0  0  0  0  0  0  0  0  0
++         2  2  2  2  2  2  2  2  2  2  2  2  2  2  2  2  2
++         2  2  2  2  2  2  2  2  2  2  2  2  2  2  0  0  0
++         0  0  0  0  0  0  0  0  0  0  0  0  0  0  0  0  0
++         0  0  0  0  0  0  0  0  0  0  0  0  0  0  0  0  0
++         0  0  0  0  0  0  0  0  0  0  0  0  0  0  0  0  0
%c cc cc ccc ccc cccc cccc cccc cccc ccccc ccccc ccccc ccccc
%c cc cc ccc ccc cccc cccc cccc cccc ccccc ccccc ccccc ccccc
%f  0.0000000  0.000000000  0.00000000000  0.000000000000000
%f  0.0000000  0.000000000  0.00000000000  0.000000000000000
%i    0    0    0    0      0      0      0      0         0
%i    0    0    0    0      0      0      0      0         0
/*      NGA, ST. LOUIS,MO.                                  
/*   EPHEMERIS COMPUTED FROM 2 DAYS OF DATA                 
/*   EPOCHA v2.4 SMOOTHER                                   
/*   G1762 IERS2010 SATAF SATAPC                            
*  2016  1 13 17  5  0.00000000
P  1 -13911.402640  21515.887449   6491.231350      9.049675                    
V  1    674.469121  -8810.607966  30508.360798      0.009432                    
P  2  16257.046010  -1040.942961 -20494.694692    599.123453                    
V  2  -8353.248818  25818.302543  -8204.118040      0.003405                    
P  3 -18188.055453  12750.509799 -14578.832477    -11.046792                    
V  3 -18623.688287    343.311292  23522.078515     -0.050330                    
P  5  26469.136694  -1782.533204  -2781.824388   -155.745205                    
V  5  -2960.589549   3545.082197 -31036.792200      0.035514                    
P  6  10124.898266  13205.338667 -20698.470242    128.529330                    
V  6 -10753.084437  23996.795911  10036.927721      0.062383                    
P  7  -4198.635945  24542.989692   8793.146595    473.892309                    
V  7  -6892.097120   9084.170334 -29453.610648     -0.014446                    
P  8 -14702.355165   5505.409322  21479.642722    -19.894068                    
V  8 -16299.023452 -21706.436241  -5600.081716     -0.014651                    
P  9   4517.918786  22034.375032 -14135.936837     49.155705                    
V  9 -12819.562948 -12747.467759 -24005.698900      0.078687                    
P 10 -13964.774560 -11751.711584  19319.212015     49.445565                    
V 10  24100.842483  -4626.831892  14563.136795      0.001961                    
P 11 -11455.164535  19321.433599  13579.106324   -627.017176                    
V 11  -3277.458670 -18483.620977  22687.101986     -0.020220                    
P 12  21048.552668 -10045.691065 -12602.139221    360.675945                    
V 12  15949.985166    357.281448  26795.313519      0.027574                    
P 13  17786.795991   4251.714138  19090.438446   -178.193403                    
V 13  11597.414991  21656.069634 -15606.278264     -0.026027                    
P 14 -14693.534929 -22219.874113   -165.750153      9.433632                    
V 14   1876.430749  -1836.688905  31742.005012     -0.023155                    
P 15  12834.020392  -9277.226799  21214.672499   -292.066894                    
V 15  17822.333059  20710.388958  -1371.636070     -0.018752                    
P 16 -26586.989964   -387.638506  -3190.219814    -48.683541                    
V 16   3786.857284  -1765.370389 -31814.279837      0.032873                    
P 17  14768.332753  22200.651421    948.196120   -198.695652                    
V 17  -2256.383513    598.546488  31902.474311     -0.007107                    
P 18  -1606.665962 -16174.999991  21514.994506    472.685596                    
V 18  25988.439171  -3951.043375  -1331.814104      0.038853                    
P 19  13889.684904  22376.788945    251.497179   -524.405279                    
V 19  -2697.627085    996.395032  32274.943162     -0.002169                    
P 20  20024.659069 -13115.417899  11413.131347    385.444744                    
V 20  15151.847904     92.439570 -26051.196892      0.027037                    
P 21   -461.199432 -23800.438238  12190.743416   -505.011776                    
V 21   8031.872595 -12481.139357 -25908.611541     -0.020392                    
P 22 -22488.488859  -6358.042954  13025.933597    411.700576                    
V 22  15513.236130  -5535.769518  24343.887878     -0.043842                    
P 23  -6768.981718  15276.167219 -20381.449440   -154.763146                    
V 23 -17096.565502 -20179.921464  -9798.236187     -0.019419                    
P 24  14814.850517 -19838.461776   9309.009599    -10.699644                    
V 24  -1550.375180  12223.002680  28566.761784     -0.005845                    
P 25   8445.142358 -14924.129310 -20330.694827    -98.924849                    
V 25  25496.136579  -2432.785311  12616.816980     -0.063700                    
P 26 -22596.146731  -5820.340673 -12714.510306   -209.489255                    
V 26  15671.040705  -4487.735096 -25752.492482     -0.166834                    
P 27 -19336.726818  -5414.360453  17435.155503     53.084276                    
V 27 -12404.481908 -18352.557108 -19293.472756      0.034321                    
P 28  12635.633768  12627.271714  20311.809301    495.088266                    
V 28 -24226.450927   2090.008249  14168.751811      0.026782                    
P 29  -1033.591848 -20968.043491 -16275.417170    651.558282                    
V 29  12968.937265  16145.149695 -21560.977047      0.011637                    
P 30   3571.113489  20004.863588  17057.639281     83.840892                    
V 30 -11376.733670  18597.095053 -19502.142992      0.047809                    
P 31 -10857.664467 -11219.900649 -21313.013135    287.194964                    
V 31  11901.761220 -24654.949832   7229.141072     -0.016296                    
P 32 -25193.618171   5242.540451  -5382.444673     79.714815                    
V 32  -7041.817923  -3239.093959  30766.763597      0.127577                    
EOF
